start=new Date('2022-02-07T00:00:00.000Z').valueOf();
sats=[{"MEAN_ANOMALY":"45.8723","ELEMENT_SET_NO":"999","PERIAPSIS":"357.074","TIME_SYSTEM":"UTC","NORAD_CAT_ID":"49155","SEMIMAJOR_AXIS":"6738.058","REF_FRAME":"TEME","GP_ID":"195445927","CLASSIFICATION_TYPE":"U","DECAY_DATE":null,"BSTAR":"0.00079265000000","LAUNCH_DATE":"2021-09-14","INCLINATION":"70.0000","MEAN_MOTION":"15.69642252","OBJECT_ID":"2021-082AB","CENTER_NAME":"EARTH","MEAN_ELEMENT_THEORY":"SGP4","MEAN_MOTION_DDOT":"0.0000000000000","REV_AT_EPOCH":"368","COUNTRY_CODE":"US","TLE_LINE1":"1 49155U 21082AB  22037.91667824  .00095084  00000-0  79265-3 0  9992","PERIOD":"91.741","ARG_OF_PERICENTER":"297.2019","OBJECT_TYPE":"PAYLOAD","APOAPSIS":"362.771","EPHEMERIS_TYPE":"0","TLE_LINE2":"2 49155  70.0000  77.0286 0004227 297.2019  45.8723 15.69642252  3686","EPOCH":"2022-02-06T22:00:00.999936","RCS_SIZE":"LARGE","RA_OF_ASC_NODE":"77.0286","FILE":"3293822","SITE":"AFWTR","MEAN_MOTION_DOT":"0.00095084","OBJECT_NAME":"STARLINK-3060","ECCENTRICITY":"0.00042270"},{"CENTER_NAME":"EARTH","OBJECT_ID":"2021-082AC","MEAN_ELEMENT_THEORY":"SGP4","MEAN_MOTION":"15.69600507","INCLINATION":"70.0001","LAUNCH_DATE":"2021-09-14","BSTAR":"0.00166440000000","DECAY_DATE":null,"CLASSIFICATION_TYPE":"U","REF_FRAME":"TEME","GP_ID":"195444675","SEMIMAJOR_AXIS":"6738.177","NORAD_CAT_ID":"49156","PERIAPSIS":"357.200","TIME_SYSTEM":"UTC","ELEMENT_SET_NO":"999","MEAN_ANOMALY":"58.7071","ECCENTRICITY":"0.00042180","SITE":"AFWTR","MEAN_MOTION_DOT":"0.00202121","OBJECT_NAME":"STARLINK-3085","FILE":"3293822","RA_OF_ASC_NODE":"77.0177","RCS_SIZE":"LARGE","EPOCH":"2022-02-06T22:00:00.999936","TLE_LINE2":"2 49156  70.0001  77.0177 0004218 294.9991  58.7071 15.69600507  3686","EPHEMERIS_TYPE":"0","APOAPSIS":"362.884","OBJECT_TYPE":"PAYLOAD","PERIOD":"91.743","ARG_OF_PERICENTER":"294.9991","COUNTRY_CODE":"US","TLE_LINE1":"1 49156U 21082AC  22037.91667824  .00202121  00000-0  16644-2 0  9996","REV_AT_EPOCH":"368","MEAN_MOTION_DDOT":"0.0000000000000"},{"NORAD_CAT_ID":"49157","SEMIMAJOR_AXIS":"6808.146","REF_FRAME":"TEME","GP_ID":"195444925","CLASSIFICATION_TYPE":"U","PERIAPSIS":"427.677","TIME_SYSTEM":"UTC","MEAN_ANOMALY":"36.6080","ELEMENT_SET_NO":"999","MEAN_ELEMENT_THEORY":"SGP4","CENTER_NAME":"EARTH","OBJECT_ID":"2021-082AD","DECAY_DATE":null,"BSTAR":"-0.01476800000000","LAUNCH_DATE":"2021-09-14","INCLINATION":"70.0000","MEAN_MOTION":"15.45465980","APOAPSIS":"432.346","EPHEMERIS_TYPE":"0","TLE_LINE2":"2 49157  70.0000  77.9006 0003429 276.5157  36.6080 15.45465980  3671","EPOCH":"2022-02-06T22:00:00.999936","OBJECT_TYPE":"PAYLOAD","ARG_OF_PERICENTER":"276.5157","PERIOD":"93.176","MEAN_MOTION_DDOT":"0.0000000000000","REV_AT_EPOCH":"367","TLE_LINE1":"1 49157U 21082AD  22037.91667824 -.00653454  00000-0 -14768-1 0  9992","COUNTRY_CODE":"US","ECCENTRICITY":"0.00034290","FILE":"3293822","MEAN_MOTION_DOT":"-0.00653454","SITE":"AFWTR","OBJECT_NAME":"STARLINK-3051","RCS_SIZE":"LARGE","RA_OF_ASC_NODE":"77.9006"},{"OBJECT_ID":"2021-082AE","CENTER_NAME":"EARTH","MEAN_ELEMENT_THEORY":"SGP4","MEAN_MOTION":"15.45530421","INCLINATION":"70.0000","LAUNCH_DATE":"2021-09-14","BSTAR":"-0.01473000000000","DECAY_DATE":null,"CLASSIFICATION_TYPE":"U","REF_FRAME":"TEME","GP_ID":"195445677","SEMIMAJOR_AXIS":"6807.957","NORAD_CAT_ID":"49158","ELEMENT_SET_NO":"999","MEAN_ANOMALY":"47.0339","PERIAPSIS":"427.457","TIME_SYSTEM":"UTC","ECCENTRICITY":"0.00034740","RA_OF_ASC_NODE":"77.8956","RCS_SIZE":"LARGE","SITE":"AFWTR","OBJECT_NAME":"STARLINK-3083","MEAN_MOTION_DOT":"-0.00653244","FILE":"3293822","OBJECT_TYPE":"PAYLOAD","TLE_LINE2":"2 49158  70.0000  77.8956 0003474 278.6118  47.0339 15.45530421  3671","EPOCH":"2022-02-06T22:00:00.999936","EPHEMERIS_TYPE":"0","APOAPSIS":"432.187","COUNTRY_CODE":"US","TLE_LINE1":"1 49158U 21082AE  22037.91667824 -.00653244  00000-0 -14730-1 0  9999","REV_AT_EPOCH":"367","MEAN_MOTION_DDOT":"0.0000000000000","ARG_OF_PERICENTER":"278.6118","PERIOD":"93.172"},{"EPOCH":"2022-02-06T22:00:00.999936","TLE_LINE2":"2 49159  69.9976  95.7475 0003827 287.7756 323.9340 14.98295232 23616","EPHEMERIS_TYPE":"0","APOAPSIS":"574.825","OBJECT_TYPE":"PAYLOAD","PERIOD":"96.109","ARG_OF_PERICENTER":"287.7756","COUNTRY_CODE":"US","TLE_LINE1":"1 49159U 21082AF  22037.91667824  .00017222  00000-0  14488-2 0  9999","REV_AT_EPOCH":"2361","MEAN_MOTION_DDOT":"0.0000000000000","ECCENTRICITY":"0.00038270","MEAN_MOTION_DOT":"0.00017222","SITE":"AFWTR","OBJECT_NAME":"STARLINK-3056","FILE":"3293610","RA_OF_ASC_NODE":"95.7475","RCS_SIZE":"LARGE","CLASSIFICATION_TYPE":"U","REF_FRAME":"TEME","GP_ID":"195416717","SEMIMAJOR_AXIS":"6950.300","NORAD_CAT_ID":"49159","TIME_SYSTEM":"UTC","PERIAPSIS":"569.506","ELEMENT_SET_NO":"999","MEAN_ANOMALY":"323.9340","CENTER_NAME":"EARTH","OBJECT_ID":"2021-082AF","MEAN_ELEMENT_THEORY":"SGP4","MEAN_MOTION":"14.98295232","LAUNCH_DATE":"2021-09-14","BSTAR":"0.00144880000000","INCLINATION":"69.9976","DECAY_DATE":null},{"OBJECT_TYPE":"PAYLOAD","EPOCH":"2022-02-06T22:00:00.999936","TLE_LINE2":"2 49160  69.9985  95.7490 0003334 290.2463  12.9145 14.98289998  3564","EPHEMERIS_TYPE":"0","APOAPSIS":"574.499","COUNTRY_CODE":"US","TLE_LINE1":"1 49160U 21082AG  22037.91667824  .00018142  00000-0  15259-2 0  9990","REV_AT_EPOCH":"356","MEAN_MOTION_DDOT":"0.0000000000000","PERIOD":"96.110","ARG_OF_PERICENTER":"290.2463","ECCENTRICITY":"0.00033340","RA_OF_ASC_NODE":"95.7490","RCS_SIZE":"LARGE","SITE":"AFWTR","MEAN_MOTION_DOT":"0.00018142","OBJECT_NAME":"STARLINK-3095","FILE":"3293822","CLASSIFICATION_TYPE":"U","GP_ID":"195444176","REF_FRAME":"TEME","SEMIMAJOR_AXIS":"6950.317","NORAD_CAT_ID":"49160","ELEMENT_SET_NO":"999","MEAN_ANOMALY":"12.9145","PERIAPSIS":"569.864","TIME_SYSTEM":"UTC","OBJECT_ID":"2021-082AG","CENTER_NAME":"EARTH","MEAN_ELEMENT_THEORY":"SGP4","MEAN_MOTION":"14.98289998","BSTAR":"0.00152590000000","LAUNCH_DATE":"2021-09-14","INCLINATION":"69.9985","DECAY_DATE":null},{"OBJECT_TYPE":"PAYLOAD","EPOCH":"2022-02-06T22:00:00.999936","TLE_LINE2":"2 49161  69.9982  95.7497 0003831 278.0526 359.2809 14.98314742  3565","EPHEMERIS_TYPE":"0","APOAPSIS":"574.768","COUNTRY_CODE":"US","TLE_LINE1":"1 49161U 21082AH  22037.91667824  .00017404  00000-0  14633-2 0  9996","REV_AT_EPOCH":"356","MEAN_MOTION_DDOT":"0.0000000000000","PERIOD":"96.108","ARG_OF_PERICENTER":"278.0526","ECCENTRICITY":"0.00038310","RA_OF_ASC_NODE":"95.7497","RCS_SIZE":"LARGE","SITE":"AFWTR","MEAN_MOTION_DOT":"0.00017404","OBJECT_NAME":"STARLINK-3080","FILE":"3293822","CLASSIFICATION_TYPE":"U","GP_ID":"195444426","REF_FRAME":"TEME","SEMIMAJOR_AXIS":"6950.240","NORAD_CAT_ID":"49161","ELEMENT_SET_NO":"999","MEAN_ANOMALY":"359.2809","TIME_SYSTEM":"UTC","PERIAPSIS":"569.442","OBJECT_ID":"2021-082AH","MEAN_ELEMENT_THEORY":"SGP4","CENTER_NAME":"EARTH","MEAN_MOTION":"14.98314742","BSTAR":"0.00146330000000","LAUNCH_DATE":"2021-09-14","INCLINATION":"69.9982","DECAY_DATE":null},{"ARG_OF_PERICENTER":"282.9186","PERIOD":"96.109","COUNTRY_CODE":"US","TLE_LINE1":"1 49162U 21082AJ  22037.91667824 -.00001951  00000-0 -15587-3 0  9999","MEAN_MOTION_DDOT":"0.0000000000000","REV_AT_EPOCH":"356","EPHEMERIS_TYPE":"0","TLE_LINE2":"2 49162  69.9989  95.7511 0003782 282.9186  45.9139 14.98302400  3564","EPOCH":"2022-02-06T22:00:00.999936","APOAPSIS":"574.772","OBJECT_TYPE":"PAYLOAD","SITE":"AFWTR","MEAN_MOTION_DOT":"-0.00001951","OBJECT_NAME":"STARLINK-3082","FILE":"3293822","RA_OF_ASC_NODE":"95.7511","RCS_SIZE":"LARGE","ECCENTRICITY":"0.00037820","PERIAPSIS":"569.515","TIME_SYSTEM":"UTC","ELEMENT_SET_NO":"999","MEAN_ANOMALY":"45.9139","REF_FRAME":"TEME","GP_ID":"195445178","CLASSIFICATION_TYPE":"U","NORAD_CAT_ID":"49162","SEMIMAJOR_AXIS":"6950.278","BSTAR":"-0.00015587000000","LAUNCH_DATE":"2021-09-14","INCLINATION":"69.9989","MEAN_MOTION":"14.98302400","DECAY_DATE":null,"OBJECT_ID":"2021-082AJ","CENTER_NAME":"EARTH","MEAN_ELEMENT_THEORY":"SGP4"},{"ECCENTRICITY":"0.00035350","OBJECT_NAME":"STARLINK-3088","SITE":"AFWTR","MEAN_MOTION_DOT":"-0.00652928","FILE":"3293822","RA_OF_ASC_NODE":"77.8860","RCS_SIZE":"LARGE","EPHEMERIS_TYPE":"0","EPOCH":"2022-02-06T22:00:00.999936","TLE_LINE2":"2 49163  69.9999  77.8860 0003535 280.1112  62.3071 15.45732627  3670","APOAPSIS":"431.635","OBJECT_TYPE":"PAYLOAD","ARG_OF_PERICENTER":"280.1112","PERIOD":"93.160","TLE_LINE1":"1 49163U 21082AK  22037.91667824 -.00652928  00000-0 -14620-1 0  9991","COUNTRY_CODE":"US","MEAN_MOTION_DDOT":"0.0000000000000","REV_AT_EPOCH":"367","CENTER_NAME":"EARTH","MEAN_ELEMENT_THEORY":"SGP4","OBJECT_ID":"2021-082AK","INCLINATION":"69.9999","LAUNCH_DATE":"2021-09-14","BSTAR":"-0.01462000000000","MEAN_MOTION":"15.45732627","DECAY_DATE":null,"REF_FRAME":"TEME","GP_ID":"195445928","CLASSIFICATION_TYPE":"U","NORAD_CAT_ID":"49163","SEMIMAJOR_AXIS":"6807.363","PERIAPSIS":"426.822","TIME_SYSTEM":"UTC","ELEMENT_SET_NO":"999","MEAN_ANOMALY":"62.3071"},{"MEAN_MOTION_DDOT":"0.0000000000000","REV_AT_EPOCH":"367","TLE_LINE1":"1 49164U 21082AL  22037.91667824 -.00652433  00000-0 -14517-1 0  9998","COUNTRY_CODE":"US","ARG_OF_PERICENTER":"280.0202","PERIOD":"93.149","OBJECT_TYPE":"PAYLOAD","APOAPSIS":"431.112","EPHEMERIS_TYPE":"0","TLE_LINE2":"2 49164  69.9999  77.8795 0003549 280.0202  84.1726 15.45913942  3672","EPOCH":"2022-02-06T22:00:00.999936","RCS_SIZE":"LARGE","RA_OF_ASC_NODE":"77.8795","FILE":"3293822","OBJECT_NAME":"STARLINK-3106","SITE":"AFWTR","MEAN_MOTION_DOT":"-0.00652433","ECCENTRICITY":"0.00035490","MEAN_ANOMALY":"84.1726","ELEMENT_SET_NO":"999","TIME_SYSTEM":"UTC","PERIAPSIS":"426.280","NORAD_CAT_ID":"49164","SEMIMAJOR_AXIS":"6806.831","REF_FRAME":"TEME","GP_ID":"195444676","CLASSIFICATION_TYPE":"U","DECAY_DATE":null,"LAUNCH_DATE":"2021-09-14","BSTAR":"-0.01451700000000","INCLINATION":"69.9999","MEAN_MOTION":"15.45913942","OBJECT_ID":"2021-082AL","CENTER_NAME":"EARTH","MEAN_ELEMENT_THEORY":"SGP4"}];
